BEIDOU 3 (C01)          
1 36287U 10001A   20286.57081296 -.00000284  00000-0  00000-0 0  9999
2 36287   1.5460  33.6895 0004859 127.4331 206.4466  1.00269290 39374
BEIDOU 5 (C06)          
1 36828U 10036A   20286.52229369 -.00000136  00000-0  10000-3 0  9998
2 36828  54.1655 181.8972 0100485 234.6478 272.6313  1.00280122 37429
BEIDOU 6 (C04)          
1 37210U 10057A   20286.61718924 -.00000116  00000-0  00000-0 0  9991
2 37210   0.7361  38.6110 0007147 177.4466 187.8349  1.00272707 36493
BEIDOU 7 (C07)          
1 37256U 10068A   20285.93855196 -.00000175  00000-0  00000+0 0  9994
2 37256  51.2891 296.9543 0082459 214.9262 326.5869  1.00275139 35996
BEIDOU 8 (C08)          
1 37384U 11013A   20286.50102249 -.00000165  00000-0  10000-3 0  9999
2 37384  59.4357  60.4086 0051931 201.6000  58.7403  1.00273346 34888
BEIDOU 9 (C09)          
1 37763U 11038A   20285.90224800 -.00000106  00000-0  10000-3 0  9993
2 37763  54.4486 184.3050 0072952 224.5776  32.8415  1.00270143 33847
BEIDOU 10 (C10)         
1 37948U 11073A   20286.50802840 -.00000118  00000-0  10000-3 0  9993
2 37948  51.3830 296.5496 0071845 216.0321 147.7363  1.00269394 32611
BEIDOU 11 (C05)         
1 38091U 12008A   20286.57965883  .00000052  00000-0  00000-0 0  9998
2 38091   1.7218  69.5180 0003112 209.6408   9.9284  1.00277037 31684
BEIDOU 12 (C11)         
1 38250U 12018A   20286.53692029 -.00000081  00000-0  10000-3 0  9998
2 38250  56.7489  13.8038 0023215 239.0944 157.8410  1.86234363 57673
BEIDOU 13 (C12)         
1 38251U 12018B   20286.57162269 -.00000081  00000-0  00000-0 0  9997
2 38251  56.6735  13.1666 0014202 238.8573 226.2594  1.86232661 57671
BEIDOU 15 (C14)         
1 38775U 12050B   20285.97507892  .00000071  00000-0  00000-0 0  9990
2 38775  55.1010 132.3650 0013457 325.3087 296.7089  1.86232364 55031
BEIDOU 16 (C02)         
1 38953U 12059A   20286.62904973 -.00000179  00000-0  00000-0 0  9991
2 38953   1.3758  84.3085 0006405 254.1773 353.6437  1.00269651 29255
BEIDOU 17 (C31)         
1 40549U 15019A   20286.56021846 -.00000142  00000-0  00000-0 0  9996
2 40549  52.8816 319.8556 0040541 193.0174 166.2021  1.00261517 20283
BEIDOU 18 (C57)         
1 40748U 15037A   20286.45807514 -.00000081  00000-0  00000-0 0  9991
2 40748  55.9393  12.4060 0001043   6.5634 292.2791  1.86232113 35494
BEIDOU 19 (C58)         
1 40749U 15037B   20285.38591523 -.00000082  00000-0  00000-0 0  9994
2 40749  55.9425  12.4309 0003684 282.2105 154.8802  1.86232231 35471
BEIDOU 20 (C18)         
1 40938U 15053A   20285.60558517 -.00000091  00000-0  00000-0 0  9993
2 40938  52.4454 282.9028 0048431 192.3257 217.5430  1.00292291 18568
BEIDOU IGSO-6 (C13)     
1 41434U 16021A   20286.56916514 -.00000127  00000-0  00000-0 0  9992
2 41434  57.2073  59.2682 0041657 203.7256  59.0457  1.00276668 16690
BEIDOU-2 G7 (C03)       
1 41586U 16037A   20286.55847396 -.00000358  00000-0  00000-0 0  9993
2 41586   1.7289  67.2950 0007532 359.6469 266.2736  1.00271369 15996
BEIDOU-3 M1 (C19)       
1 43001U 17069A   20285.35257675  .00000066  00000-0  00000-0 0  9990
2 43001  55.2537 132.3023 0007752 293.3707  67.9438  1.86231915 19961
BEIDOU-3 M2 (C20)       
1 43002U 17069B   20286.30957413  .00000075  00000-0  00000-0 0  9994
2 43002  55.2554 132.3064 0007134 322.5237   4.1564  1.86231537 19966
BEIDOU-3 M3 (C27)       
1 43107U 18003A   20286.60765865 -.00000082  00000-0  00000+0 0  9998
2 43107  55.3760  13.5924 0003427  49.8933 282.5129  1.86232759 18730
BEIDOU-3 M4 (C28)       
1 43108U 18003B   20286.54839944 -.00000082  00000-0  00000+0 0  9992
2 43108  55.3705  13.5875 0003961 226.3946 111.4398  1.86232687 18732
BEIDOU-3 M5 (C21)       
1 43207U 18018A   20285.95520057  .00000072  00000-0  00000-0 0  9993
2 43207  55.2144 132.4184 0005474 356.1166   3.9715  1.86231652 18110
BEIDOU-3 M6 (C22)       
1 43208U 18018B   20286.02197679  .00000072  00000-0  00000-0 0  9993
2 43208  55.2138 132.4212 0005954 311.6620  48.3795  1.86231600 18114
BEIDOU-3 M7 (C29)       
1 43245U 18029A   20286.40242959 -.00000082  00000-0  00000-0 0  9992
2 43245  55.3191  11.4058 0001057 203.1255 261.7451  1.86232724 17272
BEIDOU-3 M8 (C30)       
1 43246U 18029B   20285.10078803 -.00000083  00000-0  10000-3 0  9999
2 43246  55.3156  11.4810 0003153 330.0690  28.0908  1.86233353 17238
BEIDOU IGSO-7 (C16)     
1 43539U 18057A   20286.40205830 -.00000152  00000-0  00000-0 0  9994
2 43539  55.0470 181.1959 0031514 215.6829 243.0439  1.00289963  8368
BEIDOU-3 M9 (C23)       
1 43581U 18062A   20286.17362670  .00000019  00000-0  00000-0 0  9998
2 43581  54.5134 253.1232 0006278 269.3341 297.6900  1.86231875 15004
BEIDOU-3 M10 (C24)      
1 43582U 18062B   20286.57509514  .00000015  00000-0  00000-0 0  9999
2 43582  54.5135 253.0988 0005480 322.2718 244.9631  1.86232250 15019
BEIDOU-3 M11 (C25)      
1 43602U 18067A   20286.18212334  .00000018  00000-0  00000-0 0  9998
2 43602  54.5859 251.6743 0006754 343.4998   3.0211  1.86231601 14496
BEIDOU-3 M12 (C26)      
1 43603U 18067B   20286.52576520  .00000015  00000-0  00000-0 0  9994
2 43603  54.5827 251.6309 0004486 326.1255 161.3033  1.86231522 14520
BEIDOU-3 M13 (C32)      
1 43622U 18072A   20286.24579846  .00000075  00000-0  00000-0 0  9990
2 43622  55.1779 131.9851 0004459 292.2948  37.8724  1.86231941 14022
BEIDOU-3 M14 (C33)      
1 43623U 18072B   20286.61423850  .00000078  00000-0  00000-0 0  9998
2 43623  55.1807 131.9648 0003909 335.8936 331.5256  1.86231976 14032
BEIDOU-3 M15 (C34)      
1 43647U 18078A   20285.87387913 -.00000082  00000-0  10000-3 0  9996
2 43647  55.2118  11.6347 0005323 341.9244  84.2562  1.86233171 13542
BEIDOU-3 M16 (C35)      
1 43648U 18078B   20286.52369576 -.00000082  00000-0  10000-3 0  9995
2 43648  55.2078  11.6200 0003036 351.2265  59.5144  1.86232644 13569
BEIDOU-3 G1 (C59)       
1 43683U 18085A   20286.65660652 -.00000285  00000-0  00000-0 0  9996
2 43683   1.5234 249.6403 0004863 353.1606 155.3400  1.00270261  7277
BEIDOU-3 M17 (C36)      
1 43706U 18093A   20286.33277104  .00000018  00000-0  00000-0 0  9995
2 43706  54.5948 252.9585 0011799 267.7496 270.9419  1.86231871 12902
BEIDOU-3 M18 (C37)      
1 43707U 18093B   20286.61208688  .00000015  00000-0  00000-0 0  9995
2 43707  54.5932 252.9393 0010400 286.5564 170.0272  1.86232108 12918
BEIDOU-3 IGSO-1 (C38)   
1 44204U 19023A   20286.43056403 -.00000181  00000-0  10000-3 0  9997
2 44204  55.6662  59.6300 0018903 180.1347  48.6840  1.00258709  5562
BEIDOU-2 G8             
1 44231U 19027A   20286.57579392 -.00000253  00000-0  00000-0 0  9999
2 44231   0.7283 301.7309 0008141 272.6974 159.0352  1.00269757  5298
BEIDOU-3 IGSO-2 (C39)   
1 44337U 19035A   20285.69429650 -.00000132  00000-0  00000-0 0  9994
2 44337  55.0736 177.2487 0014111 182.6803  16.7624  1.00256219  4894
BEIDOU-3 M23 (C45)      
1 44542U 19061A   20285.83743002  .00000023  00000-0  10000-3 0  9999
2 44542  54.8177 252.9971 0009487 311.9059 299.0899  1.86231535  7157
BEIDOU-3 M24 (C46)      
1 44543U 19061B   20286.39968101  .00000017  00000-0  10000-3 0  9994
2 44543  54.8163 252.9476 0007133 299.3748 239.1241  1.86231885  7179
BEIDOU-3 IGSO-3         
1 44709U 19073A   20285.48729912 -.00000119  00000-0  10000-3 0  9999
2 44709  58.2228 302.7151 0022522 196.1218 162.4626  1.00296587  3641
BEIDOU-3 M21            
1 44793U 19078A   20286.49992513 -.00000082  00000-0  10000-3 0  9997
2 44793  55.0597  11.7087 0005133 349.0670  91.5926  1.86232791  6035
BEIDOU-3 M22            
1 44794U 19078B   20286.49772713 -.00000082  00000-0  10000-3 0  9996
2 44794  55.0327  11.7135 0002749 342.9409   6.7520  1.86233218  6025
BEIDOU-3 M19            
1 44864U 19090A   20286.61608225  .00000077  00000-0  00000-0 0  9997
2 44864  55.1140 132.2162 0013788 263.6051   0.1051  1.86231985  5613
BEIDOU-3 M20            
1 44865U 19090B   20286.29138944  .00000075  00000-0  10000-3 0  9990
2 44865  55.1159 132.2587 0012658 281.5809 214.3716  1.86231961  5598
BEIDOU-3 G2             
1 45344U 20017A   20286.50514962 -.00000149  00000-0  00000-0 0  9995
2 45344   2.7836 330.4416 0001833 218.3461  94.6408  1.00271477  2461
BEIDOU-3 G3             
1 45807U 20040A   20286.55847396 -.00000363  00000-0  00000-0 0  9998
2 45807   2.8587 298.6072 0007663 353.2194  41.3817  1.00269026  1280
